NORAD_CAT_ID,OBJECT_NAME,OBJECT_TYPE,EPOCH,MEAN_MOTION,ECCENTRICITY,INCLINATION,RA_OF_ASC_NODE,ARG_OF_PERICENTER,MEAN_ANOMALY,BSTAR,MEAN_MOTION_DOT,MEAN_MOTION_DDOT,TLE_LINE0,TLE_LINE1,TLE_LINE2,SEMIMAJOR_AXIS,PERIOD,APOGEE,PERIGEE,DECAYED
51120.0,STARLINK-3398,PAYLOAD,2024-08-04 14:30:14,15.08852771,0.0001624,53.2173,22.2124,105.0263,255.0909,0.00040434,6.155e-05,0.0,0 STARLINK-3398,1 51120U 22005S   24217.60433423  .00006155  00000-0  40434-3 0  9994,2 51120  53.2173  22.2124 0001624 105.0263 255.0909 15.08852771141005,6917.841,95.437,540.83,538.583,0.0
51120.0,STARLINK-3398,PAYLOAD,2024-08-04 17:41:00,15.08856767,0.0001559,53.2177,21.6181,98.3624,261.7545,0.0006107,9.449e-05,0.0,0 STARLINK-3398,1 51120U 22005S   24217.73681350  .00009449  00000-0  61070-3 0  9990,2 51120  53.2177  21.6181 0001559  98.3624 261.7545 15.08856767142131,6917.829,95.436,540.773,538.616,0.0
51120.0,STARLINK-3398,PAYLOAD,2024-08-05 17:31:47,15.08840147,0.0001288,53.217,17.1584,87.7236,272.3904,0.00013486,1.859e-05,0.0,0 STARLINK-3398,1 51120U 22005S   24218.73041615  .00001859  00000-0  13486-3 0  9990,2 51120  53.2170  17.1584 0001288  87.7236 272.3904 15.08840147141176,6917.88,95.438,540.636,538.854,0.0
51120.0,STARLINK-3398,PAYLOAD,2024-08-05 17:31:48,15.0884032,0.0001326,53.2172,17.1599,90.8937,269.2207,0.0002258,3.308e-05,0.0,0 STARLINK-3398,1 51120U 22005S   24218.73041667  .00003308  00000-0  22580-3 0  9993,2 51120  53.2172  17.1599 0001326  90.8937 269.2207 15.08840320142287,6917.879,95.438,540.662,538.827,0.0
51120.0,STARLINK-3398,PAYLOAD,2024-08-06 14:11:49,15.08827481,0.0001531,53.2187,13.2934,91.5668,268.55,-0.00010953,-2.03e-05,0.0,0 STARLINK-3398,1 51120U 22005S   24219.59154304 -.00002030  00000-0 -10953-3 0  9995,2 51120  53.2187  13.2934 0001531  91.5668 268.5500 15.08827481141303,6917.919,95.438,540.843,538.725,0.0
51120.0,STARLINK-3398,PAYLOAD,2024-08-06 17:22:35,15.08832641,0.0001538,53.2185,12.7004,98.9482,261.1684,0.00013069,1.792e-05,0.0,0 STARLINK-3398,1 51120U 22005S   24219.72402183  .00001792  00000-0  13069-3 0  9994,2 51120  53.2185  12.7004 0001538  98.9482 261.1684 15.08832641142436,6917.903,95.438,540.832,538.704,0.0
51120.0,STARLINK-3398,PAYLOAD,2024-08-07 17:13:22,15.08847324,0.0001454,53.2183,8.2406,98.8323,261.2834,0.00065632,0.00010175,0.0,0 STARLINK-3398,1 51120U 22005S   24220.71762465  .00010175  00000-0  65632-3 0  9995,2 51120  53.2183   8.2406 0001454  98.8323 261.2834 15.08847324141475,6917.858,95.437,540.729,538.717,0.0
51120.0,STARLINK-3398,PAYLOAD,2024-08-08 13:53:23,15.0885268,0.0001471,53.2184,4.3756,101.7272,258.3886,0.00048569,7.453e-05,0.0,0 STARLINK-3398,1 51120U 22005S   24221.57874103  .00007453  00000-0  48569-3 0  9998,2 51120  53.2184   4.3756 0001471 101.7272 258.3886 15.08852680141607,6917.842,95.437,540.724,538.689,0.0
51120.0,STARLINK-3398,PAYLOAD,2024-08-08 17:04:09,15.08858547,0.0001339,53.2173,3.7788,95.4637,264.6508,0.00058719,9.074e-05,0.0,0 STARLINK-3398,1 51120U 22005S   24221.71121887  .00009074  00000-0  58719-3 0  9997,2 51120  53.2173   3.7788 0001339  95.4637 264.6508 15.08858547142734,6917.824,95.436,540.615,538.762,0.0
51120.0,STARLINK-3398,PAYLOAD,2024-08-09 08:58:00,15.08847081,0.0002469,53.217,0.8079,90.4285,269.699,0.00017751,2.538e-05,0.0,0 STARLINK-3398,1 51120U 22005S   24222.37362057  .00002538  00000-0  17751-3 0  9995,2 51120  53.2170   0.8079 0002469  90.4285 269.6990 15.08847081142833,6917.859,95.437,541.432,538.016,0.0
51120.0,STARLINK-3398,PAYLOAD,2024-08-09 13:44:10,15.08828851,0.0001567,53.2174,359.9142,94.0703,266.0469,-0.00043923,-7.269e-05,0.0,0 STARLINK-3398,1 51120U 22005S   24222.57234106 -.00007269  00000-0 -43923-3 0  9998,2 51120  53.2174 359.9142 0001567  94.0703 266.0469 15.08828851141755,6917.914,95.438,540.864,538.695,0.0
51120.0,STARLINK-3398,PAYLOAD,2024-08-09 15:19:33,15.08827309,0.0001165,53.2163,359.6168,104.1224,255.9898,-0.00032717,-5.489e-05,0.0,0 STARLINK-3398,1 51120U 22005S   24222.63858047 -.00005489  00000-0 -32717-3 0  9992,2 51120  53.2163 359.6168 0001165 104.1224 255.9898 15.08827309142877,6917.919,95.438,540.59,538.978,0.0
51120.0,STARLINK-3398,PAYLOAD,2024-08-10 13:34:57,15.08846298,0.0001374,53.2168,355.4496,99.4523,260.6625,0.00064575,0.00010006,0.0,0 STARLINK-3398,1 51120U 22005S   24223.56594229  .00010006  00000-0  64575-3 0  9990,2 51120  53.2168 355.4496 0001374  99.4523 260.6625 15.08846298141902,6917.861,95.437,540.677,538.776,0.0
51120.0,STARLINK-3398,PAYLOAD,2024-08-10 15:10:20,15.08846323,0.000134,53.2173,355.1521,100.9641,259.1502,0.00053204,8.191e-05,0.0,0 STARLINK-3398,1 51120U 22005S   24223.63218180  .00008191  00000-0  53204-3 0  9996,2 51120  53.2173 355.1521 0001340 100.9641 259.1502 15.08846323143027,6917.861,95.437,540.653,538.799,0.0
51120.0,STARLINK-3398,PAYLOAD,2024-08-11 08:39:35,15.08825312,0.0001713,53.2164,351.8852,92.6564,267.4624,-0.0003155,-5.304e-05,0.0,0 STARLINK-3398,1 51120U 22005S   24224.36082492 -.00005304  00000-0 -31550-3 0  9997,2 51120  53.2164 351.8852 0001713  92.6564 267.4624 15.08825312143136,6917.925,95.438,540.975,538.605,0.0
51120.0,STARLINK-3398,PAYLOAD,2024-08-11 18:11:54,15.08839604,0.0002196,53.2163,350.0988,97.2266,262.8976,0.00039613,6.022e-05,0.0,0 STARLINK-3398,1 51120U 22005S   24224.75826511  .00006022  00000-0  39613-3 0  9992,2 51120  53.2163 350.0988 0002196  97.2266 262.8976 15.08839604143196,6917.882,95.438,541.266,538.227,0.0
51120.0,STARLINK-3398,PAYLOAD,2024-08-12 14:51:54,15.08856861,0.0002245,53.2172,346.2305,101.3251,258.7993,0.00095079,0.00014883,0.0,0 STARLINK-3398,1 51120U 22005S   24225.61938400  .00014883  00000-0  95079-3 0  9991,2 51120  53.2172 346.2305 0002245 101.3251 258.7993 15.08856861142211,6917.829,95.436,541.247,538.141,0.0
51120.0,STARLINK-3398,PAYLOAD,2024-08-12 19:38:03,15.08891999,0.0001437,53.2183,345.3414,103.6358,256.4795,0.0018901,0.00029964,0.0,0 STARLINK-3398,1 51120U 22005S   24225.81809753  .00029964  00000-0  18901-2 0  9995,2 51120  53.2183 345.3414 0001437 103.6358 256.4795 15.08891999143351,6917.721,95.434,540.581,538.592,0.0
51120.0,STARLINK-3398,PAYLOAD,2024-08-13 08:21:08,15.08855166,0.0002815,53.2123,342.9583,108.8541,251.2756,0.00019464,2.812e-05,0.0,0 STARLINK-3398,1 51120U 22005S   24226.34801776  .00002812  00000-0  19464-3 0  9990,2 51120  53.2123 342.9583 0002815 108.8541 251.2756 15.08855166143432,6917.834,95.437,541.646,537.752,0.0
51120.0,STARLINK-3398,PAYLOAD,2024-08-13 17:53:28,15.08831878,7.19e-05,53.2205,341.1772,57.0699,303.0362,-7.8327e-05,-1.534e-05,0.0,0 STARLINK-3398,1 51120U 22005S   24226.74546347 -.00001534  00000-0 -78327-4 0  9990,2 51120  53.2205 341.1772 0000719  57.0699 303.0362 15.08831878143493,6917.905,95.438,540.268,539.273,0.0
51120.0,STARLINK-3398,PAYLOAD,2024-08-14 14:33:29,15.08837648,0.0001473,53.2176,337.3132,77.3469,282.7688,0.00095315,0.00014913,0.0,0 STARLINK-3398,1 51120U 22005S   24227.60659321  .00014913  00000-0  95315-3 0  9991,2 51120  53.2176 337.3132 0001473  77.3469 282.7688 15.08837648142512,6917.888,95.438,540.772,538.734,0.0
51120.0,STARLINK-3398,PAYLOAD,2024-08-15 00:05:47,15.08866121,0.0001484,53.2189,335.5299,84.4805,275.6356,0.00098522,0.00015438,0.0,0 STARLINK-3398,1 51120U 22005S   24228.00402343  .00015438  00000-0  98522-3 0  9992,2 51120  53.2189 335.5299 0001484  84.4805 275.6356 15.08866121143685,6917.801,95.436,540.692,538.639,0.0
51120.0,STARLINK-3398,PAYLOAD,2024-08-15 23:56:36,15.08836688,0.0003553,53.2185,331.0691,84.5481,275.5916,0.00038207,5.797e-05,0.0,0 STARLINK-3398,1 51120U 22005S   24228.99763899  .00005797  00000-0  38207-3 0  9997,2 51120  53.2185 331.0691 0003553  84.5481 275.5916 15.08836688143831,6917.891,95.438,542.213,537.298,0.0
51120.0,STARLINK-3398,PAYLOAD,2024-08-18 05:59:42,15.08843846,0.0002138,53.2172,320.9593,89.7708,270.3529,0.00034038,5.134e-05,0.0,0 STARLINK-3398,1 51120U 22005S   24231.24980038  .00005134  00000-0  34038-3 0  9998,2 51120  53.2172 320.9593 0002138  89.7708 270.3529 15.08843846143064,6917.869,95.437,541.213,538.255,0.0
51120.0,STARLINK-3398,PAYLOAD,2024-08-18 12:21:14,15.08860361,0.00014,53.217,319.7685,87.9833,272.1319,0.00043618,6.664e-05,0.0,0 STARLINK-3398,1 51120U 22005S   24231.51475656  .00006664  00000-0  43618-3 0  9996,2 51120  53.2170 319.7685 0001400  87.9833 272.1319 15.08860361144216,6917.818,95.436,540.652,538.715,0.0
51120.0,STARLINK-3398,PAYLOAD,2024-08-18 17:07:23,15.08869109,0.0001392,53.2168,318.8763,88.0057,272.1095,0.0007636,0.00011895,0.0,0 STARLINK-3398,1 51120U 22005S   24231.71347209  .00011895  00000-0  76360-3 0  9992,2 51120  53.2168 318.8763 0001392  88.0057 272.1095 15.08869109143130,6917.791,95.436,540.619,538.693,0.0
51120.0,STARLINK-3398,PAYLOAD,2024-08-19 04:15:06,15.08835154,0.0001323,53.2168,316.7954,89.9784,270.136,-0.00038322,-6.381e-05,0.0,0 STARLINK-3398,1 51120U 22005S   24232.17715550 -.00006381  00000-0 -38322-3 0  9993,2 51120  53.2168 316.7954 0001323  89.9784 270.1360 15.08835154144317,6917.895,95.438,540.675,538.845,0.0
51120.0,STARLINK-3398,PAYLOAD,2024-08-19 13:47:25,15.08838115,0.0001405,53.2168,315.0119,97.1681,262.947,0.0011774,0.00018499,0.0,0 STARLINK-3398,1 51120U 22005S   24232.57459581  .00018499  00000-0  11774-2 0  9998,2 51120  53.2168 315.0119 0001405  97.1681 262.9470 15.08838115143264,6917.886,95.438,540.723,538.779,0.0
51120.0,STARLINK-3398,PAYLOAD,2024-08-19 16:58:11,15.08838799,0.0001357,53.2167,314.4167,98.2082,261.9064,0.001519,0.00023969,0.0,0 STARLINK-3398,1 51120U 22005S   24232.70707610  .00023969  00000-0  15190-2 0  9996,2 51120  53.2167 314.4167 0001357  98.2082 261.9064 15.08838799144393,6917.884,95.438,540.688,538.81,0.0
51120.0,STARLINK-3398,PAYLOAD,2024-08-20 05:41:16,15.08843,0.0001343,53.2167,312.0379,94.0701,266.0444,0.00096405,0.00015089,0.0,0 STARLINK-3398,1 51120U 22005S   24233.23699836  .00015089  00000-0  96405-3 0  9998,2 51120  53.2167 312.0379 0001343  94.0701 266.0444 15.08843000144477,6917.871,95.437,540.665,538.807,0.0
